[{"OBJECT_NAME":"NUSHSAT1","OBJECT_ID":"2025-052B","EPOCH":"2026-03-09T15:31:41.225952","MEAN_MOTION":15.31903202,"ECCENTRICITY":0.0005501,"INCLINATION":97.4095,"RA_OF_ASC_NODE":325.7239,"ARG_OF_PERICENTER":84.7512,"MEAN_ANOMALY":275.4357,"EPHEMERIS_TYPE":0,"CLASSIFICATION_TYPE":"U","NORAD_CAT_ID":63211,"ELEMENT_SET_NO":999,"REV_AT_EPOCH":5488,"BSTAR":0.00074857,"MEAN_MOTION_DOT":0.00023034,"MEAN_MOTION_DDOT":0},{"OBJECT_NAME":"STARLINK-35495","OBJECT_ID":"2025-245K","EPOCH":"2026-03-09T21:44:14.081856","MEAN_MOTION":15.30212846,"ECCENTRICITY":0.00014919,"INCLINATION":53.159,"RA_OF_ASC_NODE":282.601,"ARG_OF_PERICENTER":148.5669,"MEAN_ANOMALY":211.5421,"EPHEMERIS_TYPE":0,"CLASSIFICATION_TYPE":"U","NORAD_CAT_ID":66243,"ELEMENT_SET_NO":999,"REV_AT_EPOCH":2128,"BSTAR":0.0008735982,"MEAN_MOTION_DOT":0.00025614,"MEAN_MOTION_DDOT":0}]
