NUSHSAT1                
1 63211U 25052B   26068.64700493  .00023034  00000+0  74857-3 0  9997
2 63211  97.4095 325.7239 0005501  84.7512 275.4357 15.31903202 54882
STARLINK-35495          
1 66243U 25245K   26068.90571854  .00025614  00000+0  87360-3 0  9994
2 66243  53.1590 282.6010 0001492 148.5669 211.5421 15.30212846 21281
